start=new Date('2022-05-27T00:00:00.000Z').valueOf();
sats=[{"ECCENTRICITY":"0.00017710","APOAPSIS":"548.445","NORAD_CAT_ID":"44954","FILE":"3465646","PERIAPSIS":"545.992","COUNTRY_CODE":"US","BSTAR":"0.00006351000000","MEAN_MOTION_DDOT":"0.0000000000000","SEMIMAJOR_AXIS":"6925.354","GP_ID":"204587239","SITE":"AFETR","MEAN_MOTION_DOT":"0.00000664","OBJECT_ID":"2020-001AS","MEAN_ELEMENT_THEORY":"SGP4","ELEMENT_SET_NO":"999","TIME_SYSTEM":"UTC","PERIOD":"95.592","CENTER_NAME":"EARTH","TLE_LINE1":"1 44954U 20001AS  22145.97384755  .00000664  00000-0  63510-4 0  9996","RCS_SIZE":"LARGE","ARG_OF_PERICENTER":"55.5983","REF_FRAME":"TEME","EPHEMERIS_TYPE":"0","OBJECT_TYPE":"PAYLOAD","MEAN_ANOMALY":"304.5174","RA_OF_ASC_NODE":"38.3485","OBJECT_NAME":"STARLINK-1066","MEAN_MOTION":"15.06398321","TLE_LINE2":"2 44954  53.0579  38.3485 0001771  55.5983 304.5174 15.06398321131792","DECAY_DATE":null,"EPOCH":"2022-05-25T23:22:20.428320","REV_AT_EPOCH":"13179","LAUNCH_DATE":"2020-01-07","CLASSIFICATION_TYPE":"U","INCLINATION":"53.0579"},{"DECAY_DATE":null,"EPOCH":"2022-05-25T23:32:58.240032","MEAN_MOTION":"15.06352588","TLE_LINE2":"2 44955  53.0552  38.3333 0001992  61.9325 298.1866 15.06352588131793","CLASSIFICATION_TYPE":"U","INCLINATION":"53.0552","REV_AT_EPOCH":"13179","LAUNCH_DATE":"2020-01-07","TLE_LINE1":"1 44955U 20001AT  22145.98122963  .00009523  00000-0  65816-3 0  9992","RCS_SIZE":"LARGE","ARG_OF_PERICENTER":"61.9325","REF_FRAME":"TEME","PERIOD":"95.595","CENTER_NAME":"EARTH","OBJECT_NAME":"STARLINK-1069","EPHEMERIS_TYPE":"0","OBJECT_TYPE":"PAYLOAD","MEAN_ANOMALY":"298.1866","RA_OF_ASC_NODE":"38.3333","SEMIMAJOR_AXIS":"6925.494","GP_ID":"204587988","SITE":"AFETR","MEAN_MOTION_DOT":"0.00009523","MEAN_ELEMENT_THEORY":"SGP4","ELEMENT_SET_NO":"999","TIME_SYSTEM":"UTC","OBJECT_ID":"2020-001AT","NORAD_CAT_ID":"44955","ECCENTRICITY":"0.00019920","APOAPSIS":"548.738","BSTAR":"0.00065816000000","MEAN_MOTION_DDOT":"0.0000000000000","FILE":"3465646","PERIAPSIS":"545.979","COUNTRY_CODE":"US"},{"TLE_LINE2":"2 44956  53.0575  38.3566 0001798  65.4190 294.6986 15.06392386131851","MEAN_MOTION":"15.06392386","DECAY_DATE":null,"EPOCH":"2022-05-25T23:27:39.920832","LAUNCH_DATE":"2020-01-07","REV_AT_EPOCH":"13185","CLASSIFICATION_TYPE":"U","INCLINATION":"53.0575","CENTER_NAME":"EARTH","PERIOD":"95.593","TLE_LINE1":"1 44956U 20001AU  22145.97754538  .00001990  00000-0  15246-3 0  9993","RCS_SIZE":"LARGE","REF_FRAME":"TEME","ARG_OF_PERICENTER":"65.4190","MEAN_ANOMALY":"294.6986","RA_OF_ASC_NODE":"38.3566","EPHEMERIS_TYPE":"0","OBJECT_TYPE":"PAYLOAD","OBJECT_NAME":"STARLINK-1070","SITE":"AFETR","MEAN_MOTION_DOT":"0.00001990","SEMIMAJOR_AXIS":"6925.372","GP_ID":"204586740","OBJECT_ID":"2020-001AU","ELEMENT_SET_NO":"999","TIME_SYSTEM":"UTC","MEAN_ELEMENT_THEORY":"SGP4","APOAPSIS":"548.482","ECCENTRICITY":"0.00017980","NORAD_CAT_ID":"44956","FILE":"3465646","PERIAPSIS":"545.992","COUNTRY_CODE":"US","BSTAR":"0.00015246000000","MEAN_MOTION_DDOT":"0.0000000000000"},{"TIME_SYSTEM":"UTC","ELEMENT_SET_NO":"999","MEAN_ELEMENT_THEORY":"SGP4","OBJECT_ID":"2020-001AV","MEAN_MOTION_DOT":"0.00003074","SITE":"AFETR","GP_ID":"204586490","SEMIMAJOR_AXIS":"6925.368","MEAN_MOTION_DDOT":"0.0000000000000","BSTAR":"0.00022523000000","PERIAPSIS":"546.079","COUNTRY_CODE":"US","FILE":"3465646","NORAD_CAT_ID":"44957","ECCENTRICITY":"0.00016660","APOAPSIS":"548.386","INCLINATION":"53.0545","CLASSIFICATION_TYPE":"U","LAUNCH_DATE":"2020-01-07","REV_AT_EPOCH":"13191","EPOCH":"2022-05-26T09:38:02.920416","DECAY_DATE":null,"TLE_LINE2":"2 44957  53.0545  36.4440 0001666  63.8061 296.3099 15.06393765131915","MEAN_MOTION":"15.06393765","OBJECT_NAME":"STARLINK-1074","RA_OF_ASC_NODE":"36.4440","MEAN_ANOMALY":"296.3099","OBJECT_TYPE":"PAYLOAD","EPHEMERIS_TYPE":"0","TLE_LINE1":"1 44957U 20001AV  22146.40142269  .00003074  00000-0  22523-3 0  9996","RCS_SIZE":"LARGE","ARG_OF_PERICENTER":"63.8061","REF_FRAME":"TEME","CENTER_NAME":"EARTH","PERIOD":"95.593"},{"GP_ID":"204624954","SEMIMAJOR_AXIS":"6925.349","SITE":"AFETR","MEAN_MOTION_DOT":"0.00004630","OBJECT_ID":"2020-001AX","MEAN_ELEMENT_THEORY":"SGP4","ELEMENT_SET_NO":"999","TIME_SYSTEM":"UTC","APOAPSIS":"548.615","ECCENTRICITY":"0.00020230","NORAD_CAT_ID":"44959","FILE":"3466271","PERIAPSIS":"545.813","COUNTRY_CODE":"US","BSTAR":"0.00032953000000","MEAN_MOTION_DDOT":"0.0000000000000","MEAN_MOTION":"15.06400006","TLE_LINE2":"2 44959  53.0557  34.2867 0002023  52.4293 307.6879 15.06400006131984","DECAY_DATE":null,"EPOCH":"2022-05-26T21:08:03.976512","REV_AT_EPOCH":"13198","LAUNCH_DATE":"2020-01-07","INCLINATION":"53.0557","CLASSIFICATION_TYPE":"U","PERIOD":"95.592","CENTER_NAME":"EARTH","TLE_LINE1":"1 44959U 20001AX  22146.88060158  .00004630  00000-0  32953-3 0  9993","RCS_SIZE":"LARGE","ARG_OF_PERICENTER":"52.4293","REF_FRAME":"TEME","EPHEMERIS_TYPE":"0","OBJECT_TYPE":"PAYLOAD","MEAN_ANOMALY":"307.6879","RA_OF_ASC_NODE":"34.2867","OBJECT_NAME":"STARLINK-1076"},{"REV_AT_EPOCH":"13192","LAUNCH_DATE":"2020-01-07","INCLINATION":"53.0566","CLASSIFICATION_TYPE":"U","MEAN_MOTION":"15.06399817","TLE_LINE2":"2 44961  53.0566  36.3554 0001608  72.5049 287.6115 15.06399817131924","DECAY_DATE":null,"EPOCH":"2022-05-26T10:09:53.374752","EPHEMERIS_TYPE":"0","OBJECT_TYPE":"PAYLOAD","MEAN_ANOMALY":"287.6115","RA_OF_ASC_NODE":"36.3554","OBJECT_NAME":"STARLINK-1080","PERIOD":"95.592","CENTER_NAME":"EARTH","ARG_OF_PERICENTER":"72.5049","TLE_LINE1":"1 44961U 20001AZ  22146.42353443  .00003222  00000-0  23512-3 0  9995","RCS_SIZE":"LARGE","REF_FRAME":"TEME","OBJECT_ID":"2020-001AZ","MEAN_ELEMENT_THEORY":"SGP4","ELEMENT_SET_NO":"999","TIME_SYSTEM":"UTC","SEMIMAJOR_AXIS":"6925.349","GP_ID":"204625205","SITE":"AFETR","MEAN_MOTION_DOT":"0.00003222","FILE":"3466271","PERIAPSIS":"546.101","COUNTRY_CODE":"US","BSTAR":"0.00023512000000","MEAN_MOTION_DDOT":"0.0000000000000","ECCENTRICITY":"0.00016080","APOAPSIS":"548.328","NORAD_CAT_ID":"44961"},{"PERIAPSIS":"520.855","COUNTRY_CODE":"US","FILE":"3465646","MEAN_MOTION_DDOT":"0.0000000000000","BSTAR":"0.00186350000000","APOAPSIS":"523.812","ECCENTRICITY":"0.00021430","NORAD_CAT_ID":"44963","OBJECT_ID":"2020-001BB","MEAN_ELEMENT_THEORY":"SGP4","TIME_SYSTEM":"UTC","ELEMENT_SET_NO":"999","GP_ID":"204586241","SEMIMAJOR_AXIS":"6900.469","MEAN_MOTION_DOT":"0.00034632","SITE":"AFETR","OBJECT_TYPE":"PAYLOAD","EPHEMERIS_TYPE":"0","RA_OF_ASC_NODE":"26.9597","MEAN_ANOMALY":"260.5656","OBJECT_NAME":"STARLINK-1085","PERIOD":"95.077","CENTER_NAME":"EARTH","RCS_SIZE":"LARGE","TLE_LINE1":"1 44963U 20001BB  22146.08392269  .00034632  00000-0  18635-2 0  9996","ARG_OF_PERICENTER":"99.5578","REF_FRAME":"TEME","REV_AT_EPOCH":"13272","LAUNCH_DATE":"2020-01-07","CLASSIFICATION_TYPE":"U","INCLINATION":"53.0002","MEAN_MOTION":"15.14554431","TLE_LINE2":"2 44963  53.0002  26.9597 0002143  99.5578 260.5656 15.14554431132727","EPOCH":"2022-05-26T02:00:50.920416","DECAY_DATE":null},{"EPOCH":"2022-05-26T09:16:47.943264","DECAY_DATE":null,"MEAN_MOTION":"15.06406066","TLE_LINE2":"2 44964  53.0558  36.4987 0001513  74.6273 285.4883 15.06406066131918","INCLINATION":"53.0558","CLASSIFICATION_TYPE":"U","REV_AT_EPOCH":"13191","LAUNCH_DATE":"2020-01-07","TLE_LINE1":"1 44964U 20001BC  22146.38666601  .00001402  00000-0  11295-3 0  9999","RCS_SIZE":"LARGE","ARG_OF_PERICENTER":"74.6273","REF_FRAME":"TEME","PERIOD":"95.592","CENTER_NAME":"EARTH","OBJECT_NAME":"STARLINK-1086","OBJECT_TYPE":"PAYLOAD","EPHEMERIS_TYPE":"0","RA_OF_ASC_NODE":"36.4987","MEAN_ANOMALY":"285.4883","GP_ID":"204586990","SEMIMAJOR_AXIS":"6925.330","MEAN_MOTION_DOT":"0.00001402","SITE":"AFETR","MEAN_ELEMENT_THEORY":"SGP4","TIME_SYSTEM":"UTC","ELEMENT_SET_NO":"999","OBJECT_ID":"2020-001BC","NORAD_CAT_ID":"44964","APOAPSIS":"548.243","ECCENTRICITY":"0.00015130","MEAN_MOTION_DDOT":"0.0000000000000","BSTAR":"0.00011295000000","COUNTRY_CODE":"US","PERIAPSIS":"546.147","FILE":"3465646"},{"ECCENTRICITY":"0.00011840","APOAPSIS":"548.040","NORAD_CAT_ID":"44966","COUNTRY_CODE":"US","PERIAPSIS":"546.400","FILE":"3466271","MEAN_MOTION_DDOT":"0.0000000000000","BSTAR":"0.00019212000000","GP_ID":"204625454","SEMIMAJOR_AXIS":"6925.355","MEAN_MOTION_DOT":"0.00002581","SITE":"AFETR","OBJECT_ID":"2020-001BE","MEAN_ELEMENT_THEORY":"SGP4","TIME_SYSTEM":"UTC","ELEMENT_SET_NO":"999","PERIOD":"95.592","CENTER_NAME":"EARTH","TLE_LINE1":"1 44966U 20001BE  22146.93956878  .00002581  00000-0  19212-3 0  9996","RCS_SIZE":"LARGE","ARG_OF_PERICENTER":"67.0556","REF_FRAME":"TEME","OBJECT_TYPE":"PAYLOAD","EPHEMERIS_TYPE":"0","RA_OF_ASC_NODE":"34.0327","MEAN_ANOMALY":"293.0558","OBJECT_NAME":"STARLINK-1088","MEAN_MOTION":"15.06397924","TLE_LINE2":"2 44966  53.0563  34.0327 0001184  67.0556 293.0558 15.06397924131996","EPOCH":"2022-05-26T22:32:58.742592","DECAY_DATE":null,"REV_AT_EPOCH":"13199","LAUNCH_DATE":"2020-01-07","CLASSIFICATION_TYPE":"U","INCLINATION":"53.0563"},{"PERIOD":"95.592","CENTER_NAME":"EARTH","TLE_LINE1":"1 44967U 20001BF  22146.43090141  .00001454  00000-0  11650-3 0  9990","RCS_SIZE":"LARGE","ARG_OF_PERICENTER":"52.5001","REF_FRAME":"TEME","OBJECT_TYPE":"PAYLOAD","EPHEMERIS_TYPE":"0","RA_OF_ASC_NODE":"36.3146","MEAN_ANOMALY":"307.6137","OBJECT_NAME":"STARLINK-1089","MEAN_MOTION":"15.06397050","TLE_LINE2":"2 44967  53.0559  36.3146 0001638  52.5001 307.6137 15.06397050131922","EPOCH":"2022-05-26T10:20:29.881824","DECAY_DATE":null,"REV_AT_EPOCH":"13192","LAUNCH_DATE":"2020-01-07","CLASSIFICATION_TYPE":"U","INCLINATION":"53.0559","APOAPSIS":"548.357","ECCENTRICITY":"0.00016380","NORAD_CAT_ID":"44967","COUNTRY_CODE":"US","PERIAPSIS":"546.088","FILE":"3466271","MEAN_MOTION_DDOT":"0.0000000000000","BSTAR":"0.00011650000000","GP_ID":"204625705","SEMIMAJOR_AXIS":"6925.358","MEAN_MOTION_DOT":"0.00001454","SITE":"AFETR","OBJECT_ID":"2020-001BF","MEAN_ELEMENT_THEORY":"SGP4","TIME_SYSTEM":"UTC","ELEMENT_SET_NO":"999"}];
